[{"OBJECT_NAME":"STARLINK-30969","OBJECT_ID":"2023-183B","EPOCH":"2026-03-09T22:21:48.778848","MEAN_MOTION":15.26734723,"ECCENTRICITY":0.00012691,"INCLINATION":43.0009,"RA_OF_ASC_NODE":40.0601,"ARG_OF_PERICENTER":283.0632,"MEAN_ANOMALY":77.0078,"EPHEMERIS_TYPE":0,"CLASSIFICATION_TYPE":"U","NORAD_CAT_ID":58438,"ELEMENT_SET_NO":999,"REV_AT_EPOCH":12677,"BSTAR":1.4008901e-5,"MEAN_MOTION_DOT":1.16e-6,"MEAN_MOTION_DDOT":0},{"OBJECT_NAME":"DMSP 5D-2 F14 DEB","OBJECT_ID":"1997-012E","EPOCH":"2026-03-09T23:05:42.500544","MEAN_MOTION":15.25086034,"ECCENTRICITY":0.00083151,"INCLINATION":98.7933,"RA_OF_ASC_NODE":208.6058,"ARG_OF_PERICENTER":272.9178,"MEAN_ANOMALY":87.1104,"EPHEMERIS_TYPE":0,"CLASSIFICATION_TYPE":"U","NORAD_CAT_ID":24778,"ELEMENT_SET_NO":999,"REV_AT_EPOCH":51788,"BSTAR":0.0054670036,"MEAN_MOTION_DOT":0.00139299,"MEAN_MOTION_DDOT":0}]
